$$SOE
2460147.500000000, A.D. 2023-Jul-22 00:00:00.0000, -5.183059705577628E+09, -3.811765284848449E+09, 9.844461661292958E+07,
2460154.500000000, A.D. 2023-Jul-29 00:00:00.0000, -5.181435935885045E+09, -3.814042668524479E+09, 9.840700143513489E+07,
2460161.500000000, A.D. 2023-Aug-05 00:00:00.0000, -5.179811305338911E+09, -3.816319382097339E+09, 9.836937061333847E+07,
2460168.500000000, A.D. 2023-Aug-12 00:00:00.0000, -5.178185816552526E+09, -3.818595427129532E+09, 9.833172430438542E+07,
2460175.500000000, A.D. 2023-Aug-19 00:00:00.0000, -5.176559471834558E+09, -3.820870805672378E+09, 9.829406263492894E+07,
2460182.500000000, A.D. 2023-Aug-26 00:00:00.0000, -5.174932273188288E+09, -3.823145520176012E+09, 9.825638570750880E+07,
2460189.500000000, A.D. 2023-Sep-02 00:00:00.0000, -5.173304222333867E+09, -3.825419573470705E+09, 9.821869360196924E+07,
2460196.500000000, A.D. 2023-Sep-09 00:00:00.0000, -5.171675320716946E+09, -3.827692968860713E+09, 9.818098636551785E+07,
2460203.500000000, A.D. 2023-Sep-16 00:00:00.0000, -5.170045569335254E+09, -3.829965710388668E+09, 9.814326397129297E+07,
2460210.500000000, A.D. 2023-Sep-23 00:00:00.0000, -5.168414967966711E+09, -3.832237802983716E+09, 9.810552623074675E+07,
2460217.500000000, A.D. 2023-Sep-30 00:00:00.0000, -5.166783514138659E+09, -3.834509251302710E+09, 9.806777278840566E+07,
2460224.500000000, A.D. 2023-Oct-07 00:00:00.0000, -5.165151204191928E+09, -3.836780057807241E+09, 9.803000337065649E+07,
2460231.500000000, A.D. 2023-Oct-14 00:00:00.0000, -5.163518035399844E+09, -3.839050223389715E+09, 9.799221792258954E+07,
2460238.500000000, A.D. 2023-Oct-21 00:00:00.0000, -5.161884005913596E+09, -3.841319748945725E+09, 9.795441646792626E+07,
2460245.500000000, A.D. 2023-Oct-28 00:00:00.0000, -5.160249113958294E+09, -3.843588635632619E+09, 9.791659900761652E+07,
2460252.500000000, A.D. 2023-Nov-04 00:00:00.0000, -5.158613357529749E+09, -3.845856884584640E+09, 9.787876550904250E+07,
2460259.500000000, A.D. 2023-Nov-11 00:00:00.0000, -5.156976734414434E+09, -3.848124496684524E+09, 9.784091592079926E+07,
2460266.500000000, A.D. 2023-Nov-18 00:00:00.0000, -5.155339242313112E+09, -3.850391472455854E+09, 9.780305018790150E+07,
2460273.500000000, A.D. 2023-Nov-25 00:00:00.0000, -5.153700878995275E+09, -3.852657812053623E+09, 9.776516826281881E+07,
2460280.500000000, A.D. 2023-Dec-02 00:00:00.0000, -5.152061642456283E+09, -3.854923515364187E+09, 9.772727010900855E+07,
2460287.500000000, A.D. 2023-Dec-09 00:00:00.0000, -5.150421530999293E+09, -3.857188582273532E+09, 9.768935568510842E+07,
2460294.500000000, A.D. 2023-Dec-16 00:00:00.0000, -5.148780542954495E+09, -3.859453013091285E+09, 9.765142488448167E+07,
2460301.500000000, A.D. 2023-Dec-23 00:00:00.0000, -5.147138675687165E+09, -3.861716808443022E+09, 9.761347745428920E+07,
2460308.500000000, A.D. 2023-Dec-30 00:00:00.0000, -5.145495925234772E+09, -3.863979967581624E+09, 9.757551310265136E+07,
2460315.500000000, A.D. 2024-Jan-06 00:00:00.0000, -5.143852288345592E+09, -3.866242487478387E+09, 9.753753176337290E+07,
2460322.500000000, A.D. 2024-Jan-13 00:00:00.0000, -5.142207763746064E+09, -3.868504364500803E+09, 9.749953357934356E+07,
2460329.500000000, A.D. 2024-Jan-20 00:00:00.0000, -5.140562351413373E+09, -3.870765595592423E+09, 9.746151874419498E+07,
2460336.500000000, A.D. 2024-Jan-27 00:00:00.0000, -5.138916051881934E+09, -3.873026178302614E+09, 9.742348744136286E+07,
2460343.500000000, A.D. 2024-Feb-03 00:00:00.0000, -5.137268866012224E+09, -3.875286110614814E+09, 9.738543984207320E+07,
2460350.500000000, A.D. 2024-Feb-10 00:00:00.0000, -5.135620794944530E+09, -3.877545390864416E+09, 9.734737611282063E+07,
2460357.500000000, A.D. 2024-Feb-17 00:00:00.0000, -5.133971840098960E+09, -3.879804017738338E+09, 9.730929642007279E+07,
2460364.500000000, A.D. 2024-Feb-24 00:00:00.0000, -5.132322003185761E+09, -3.882061990341531E+09, 9.727120092998552E+07,
2460371.500000000, A.D. 2024-Mar-02 00:00:00.0000, -5.130671286196594E+09, -3.884319308362870E+09, 9.723308979765224E+07,
2460378.500000000, A.D. 2024-Mar-09 00:00:00.0000, -5.129019691237969E+09, -3.886575972403371E+09, 9.719496312795520E+07,
2460385.500000000, A.D. 2024-Mar-16 00:00:00.0000, -5.127367219811522E+09, -3.888831984269401E+09, 9.715682088781619E+07,
2460392.500000000, A.D. 2024-Mar-23 00:00:00.0000, -5.125713871644712E+09, -3.891087346121875E+09, 9.711866286994457E+07,
2460399.500000000, A.D. 2024-Mar-30 00:00:00.0000, -5.124059645313111E+09, -3.893342058508222E+09, 9.708048891144347E+07,
2460406.500000000, A.D. 2024-Apr-06 00:00:00.0000, -5.122404540398205E+09, -3.895596120644711E+09, 9.704229906856441E+07,
2460413.500000000, A.D. 2024-Apr-13 00:00:00.0000, -5.120748557629615E+09, -3.897849532112772E+09, 9.700409349026155E+07,
2460420.500000000, A.D. 2024-Apr-20 00:00:00.0000, -5.119091697963868E+09, -3.900102293292573E+09, 9.696587229661870E+07,
2460427.500000000, A.D. 2024-Apr-27 00:00:00.0000, -5.117433962116744E+09, -3.902354405095314E+09, 9.692763555546570E+07,
2460434.500000000, A.D. 2024-May-04 00:00:00.0000, -5.115775350461269E+09, -3.904605868697481E+09, 9.688938329169488E+07,
2460441.500000000, A.D. 2024-May-11 00:00:00.0000, -5.114115863053044E+09, -3.906856685378714E+09, 9.685111549919772E+07,
2460448.500000000, A.D. 2024-May-18 00:00:00.0000, -5.112455499700883E+09, -3.909106856441390E+09, 9.681283214981651E+07,
2460455.500000000, A.D. 2024-May-25 00:00:00.0000, -5.110794260058070E+09, -3.911356383218713E+09, 9.677453319662499E+07,
2460462.500000000, A.D. 2024-Jun-01 00:00:00.0000, -5.109132143674386E+09, -3.913605267228431E+09, 9.673621856159115E+07,
2460469.500000000, A.D. 2024-Jun-08 00:00:00.0000, -5.107469149762532E+09, -3.915853510494812E+09, 9.669788808338380E+07,
2460476.500000000, A.D. 2024-Jun-15 00:00:00.0000, -5.105805276279442E+09, -3.918101115493523E+09, 9.665954143349075E+07,
2460483.500000000, A.D. 2024-Jun-22 00:00:00.0000, -5.104140519327681E+09, -3.920348083544019E+09, 9.662117818915701E+07,
2460490.500000000, A.D. 2024-Jun-29 00:00:00.0000, -5.102474874998588E+09, -3.922594413470080E+09, 9.658279810919952E+07,
2460497.500000000, A.D. 2024-Jul-06 00:00:00.0000, -5.100808341012143E+09, -3.924840102999435E+09, 9.654440116837072E+07,
2460504.500000000, A.D. 2024-Jul-13 00:00:00.0000, -5.099140916204301E+09, -3.927085150078304E+09, 9.650598740242648E+07,
2460511.500000000, A.D. 2024-Jul-20 00:00:00.0000, -5.097472599847460E+09, -3.929329552952089E+09, 9.646755683999777E+07,
2460518.500000000, A.D. 2024-Jul-27 00:00:00.0000, -5.095803391460065E+09, -3.931573309971663E+09, 9.642910950303102E+07,
2460525.500000000, A.D. 2024-Aug-03 00:00:00.0000, -5.094133290832384E+09, -3.933816419500057E+09, 9.639064542005801E+07,
2460532.500000000, A.D. 2024-Aug-10 00:00:00.0000, -5.092462298102720E+09, -3.936058879923881E+09, 9.635216463658094E+07,
2460539.500000000, A.D. 2024-Aug-17 00:00:00.0000, -5.090790413836706E+09, -3.938300689747381E+09, 9.631366721981525E+07,
2460546.500000000, A.D. 2024-Aug-24 00:00:00.0000, -5.089117639081853E+09, -3.940541847791105E+09, 9.627515325317478E+07,
2460553.500000000, A.D. 2024-Aug-31 00:00:00.0000, -5.087443975281732E+09, -3.942782353556231E+09, 9.623662280462217E+07,
2460560.500000000, A.D. 2024-Sep-07 00:00:00.0000, -5.085769423684289E+09, -3.945022207627869E+09, 9.619807584541583E+07,
2460567.500000000, A.D. 2024-Sep-14 00:00:00.0000, -5.084093984159050E+09, -3.947261411121150E+09, 9.615951219257855E+07,
2460574.500000000, A.D. 2024-Sep-21 00:00:00.0000, -5.082417655452037E+09, -3.949499963757270E+09, 9.612093169467306E+07,
2460581.500000000, A.D. 2024-Sep-28 00:00:00.0000, -5.080740437365899E+09, -3.951737863796998E+09, 9.608233444164896E+07,
2460588.500000000, A.D. 2024-Oct-05 00:00:00.0000, -5.079062331195555E+09, -3.953975109829799E+09, 9.604372066216207E+07,
2460595.500000000, A.D. 2024-Oct-12 00:00:00.0000, -5.077383338779964E+09, -3.956211701438379E+09, 9.600509058488917E+07,
2460602.500000000, A.D. 2024-Oct-19 00:00:00.0000, -5.075703461920958E+09, -3.958447639009290E+09, 9.596644440225077E+07,
2460609.500000000, A.D. 2024-Oct-26 00:00:00.0000, -5.074022702201451E+09, -3.960682923490833E+09, 9.592778227399850E+07,
2460616.500000000, A.D. 2024-Nov-02 00:00:00.0000, -5.072341060945635E+09, -3.962917556246379E+09, 9.588910433494210E+07,
2460623.500000000, A.D. 2024-Nov-09 00:00:00.0000, -5.070658539224358E+09, -3.965151538982143E+09, 9.585041069968724E+07,
2460630.500000000, A.D. 2024-Nov-16 00:00:00.0000, -5.068975137879712E+09, -3.967384873748856E+09, 9.581170146206784E+07,
2460637.500000000, A.D. 2024-Nov-23 00:00:00.0000, -5.067290857521669E+09, -3.969617563066931E+09, 9.577297668095589E+07,
2460644.500000000, A.D. 2024-Nov-30 00:00:00.0000, -5.065605698288407E+09, -3.971849610217547E+09, 9.573423632994771E+07,
2460651.500000000, A.D. 2024-Dec-07 00:00:00.0000, -5.063919658950709E+09, -3.974081019278773E+09, 9.569548020692635E+07,
2460658.500000000, A.D. 2024-Dec-14 00:00:00.0000, -5.062232736049045E+09, -3.976311793682589E+09, 9.565670796680140E+07,
2460665.500000000, A.D. 2024-Dec-21 00:00:00.0000, -5.060544925381744E+09, -3.978541934533460E+09, 9.561791938885379E+07,
2460672.500000000, A.D. 2024-Dec-28 00:00:00.0000, -5.058856223871813E+09, -3.980771441655679E+09, 9.557911445543766E+07,
2460679.500000000, A.D. 2025-Jan-04 00:00:00.0000, -5.057166629215043E+09, -3.983000314993242E+09, 9.554029319820786E+07,
2460686.500000000, A.D. 2025-Jan-11 00:00:00.0000, -5.055476139130629E+09, -3.985228554702384E+09, 9.550145561480570E+07,
2460693.500000000, A.D. 2025-Jan-18 00:00:00.0000, -5.053784751131080E+09, -3.987456160855536E+09, 9.546260166526008E+07,
2460700.500000000, A.D. 2025-Jan-25 00:00:00.0000, -5.052092462567825E+09, -3.989683133231253E+09, 9.542373128726506E+07,
2460707.500000000, A.D. 2025-Feb-01 00:00:00.0000, -5.050399270762859E+09, -3.991909471220217E+09, 9.538484441074657E+07,
$$EOE